[{"OBJECT_NAME":"STARLINK-32922","OBJECT_ID":"2025-027V","EPOCH":"2026-03-09T04:29:27.650112","MEAN_MOTION":15.27595304,"ECCENTRICITY":0.00011783,"INCLINATION":42.9987,"RA_OF_ASC_NODE":131.8589,"ARG_OF_PERICENTER":254.2597,"MEAN_ANOMALY":105.8125,"EPHEMERIS_TYPE":0,"CLASSIFICATION_TYPE":"U","NORAD_CAT_ID":62926,"ELEMENT_SET_NO":999,"REV_AT_EPOCH":6146,"BSTAR":0.0011823372,"MEAN_MOTION_DOT":0.00032432,"MEAN_MOTION_DDOT":0},{"OBJECT_NAME":"FENGYUN 1C DEB","OBJECT_ID":"1999-025BNP","EPOCH":"2026-03-08T20:32:05.282880","MEAN_MOTION":15.24866573,"ECCENTRICITY":0.00982022,"INCLINATION":98.3915,"RA_OF_ASC_NODE":217.6412,"ARG_OF_PERICENTER":158.7529,"MEAN_ANOMALY":201.7829,"EPHEMERIS_TYPE":0,"CLASSIFICATION_TYPE":"U","NORAD_CAT_ID":31281,"ELEMENT_SET_NO":999,"REV_AT_EPOCH":1008,"BSTAR":0.0025465872,"MEAN_MOTION_DOT":0.00073171,"MEAN_MOTION_DDOT":0}]
